[{"OBJECT_NAME":"STARLINK-30327","OBJECT_ID":"2023-129K","EPOCH":"2026-03-09T12:25:28.993152","MEAN_MOTION":15.26626807,"ECCENTRICITY":0.00230309,"INCLINATION":42.9974,"RA_OF_ASC_NODE":85.9834,"ARG_OF_PERICENTER":70.832,"MEAN_ANOMALY":289.5022,"EPHEMERIS_TYPE":0,"CLASSIFICATION_TYPE":"U","NORAD_CAT_ID":57707,"ELEMENT_SET_NO":999,"REV_AT_EPOCH":14090,"BSTAR":0.00029313824,"MEAN_MOTION_DOT":7.635e-5,"MEAN_MOTION_DDOT":0},{"OBJECT_NAME":"STARLINK-31245","OBJECT_ID":"2024-020R","EPOCH":"2026-03-09T21:14:36.927168","MEAN_MOTION":15.30186453,"ECCENTRICITY":0.0001449,"INCLINATION":53.1603,"RA_OF_ASC_NODE":280.3596,"ARG_OF_PERICENTER":117.6027,"MEAN_ANOMALY":242.5121,"EPHEMERIS_TYPE":0,"CLASSIFICATION_TYPE":"U","NORAD_CAT_ID":58891,"ELEMENT_SET_NO":999,"REV_AT_EPOCH":11983,"BSTAR":1.1946448e-5,"MEAN_MOTION_DOT":-6.0e-8,"MEAN_MOTION_DDOT":0}]
